satname,norad_id,inclination_deg,eccentricity,mean_motion_rev_per_day,perigee_km,apogee_km,l1,l2
STARLINK-1560,46036,53.1032,0.0001816,15.17646818,511.7033055266311,514.2061500421614,1 46036U 20055K   26067.66667824  .01912745  00000+0  84921-1 0  9990,2 46036  53.1032 130.9746 0001816  76.0371  32.5174 15.17646818  5807
STARLINK-1567,46038,53.0876,0.0001408,15.15651649,518.0298012647363,519.9720353025259,1 46038U 20055M   26067.66667824  .01089679  00000+0  52311-1 0  9991,2 46038  53.0876 131.0407 0001408  75.0364 296.7998 15.15651649  5802
STARLINK-1569,46039,53.0966,0.0001398,15.16335924,515.9618572597119,517.889716814967,1 46039U 20055N   26067.66667824  .01028037  00000+0  48628-1 0  9999,2 46039  53.0966 130.9492 0001398  67.2488 315.0176 15.16335924  5745
STARLINK-1582,46043,53.0932,0.0001118,15.15811339,517.7454571277076,519.2875488509753,1 46043U 20055S   26067.66667824  .01374347  00000+0  65297-1 0  9993,2 46043  53.0932 131.0446 0001118 102.6423 187.9740 15.15811339  5748
STARLINK-1591,46045,53.0973,0.0001265,15.17057892,513.8660907580515,515.6099881430328,1 46045U 20055U   26067.66667824  .00117901  00000+0  58055-2 0  9990,2 46045  53.0973 130.8931 0001265  86.2057 147.8222 15.17057892  5753
STARLINK-1524,46047,53.1566,0.0001309,15.29365253,476.8111768933304,478.60603727326634,1 46047U 20055W   26067.41233091  .00004878  00000+0  18121-3 0  9999,2 46047  53.1566 119.7622 0001309  80.8121 279.3027 15.29365253308877
STARLINK-1527,46048,53.1596,0.0001356,15.30140541,474.46327040967935,476.32194763964617,1 46048U 20055X   26067.66667824  .00046492  00000+0  15749-2 0  9992,2 46048  53.1596 118.6905 0001356  95.4283 185.5805 15.30140541  5741
STARLINK-1540,46051,53.1549,0.0001716,15.30131084,474.24477736953213,476.5969184229316,1 46051U 20055AA  26067.57359094  .00067961  00000+0  22906-2 0  9990,2 46051  53.1549 119.0250 0001716 119.1632 240.9541 15.30131084308913
STARLINK-1541,46052,53.1586,0.0001248,15.30205379,474.34371240805103,476.05430507583424,1 46052U 20055AB  26067.56304341  .00006422  00000+0  22872-3 0  9993,2 46052  53.1586 119.1182 0001248  92.8567 267.2577 15.30205379308879
STARLINK-1543,46053,53.1614,0.0001194,15.30161594,474.5114412817302,476.14804914048636,1 46053U 20055AC  26067.43875059  .00007674  00000+0  27126-3 0  9996,2 46053  53.1614 119.7220 0001194  72.9226 287.1906 15.30161594308880
STARLINK-1548,46054,53.158,0.0001506,15.30189726,474.2136264615292,476.27786534459483,1 46054U 20055AD  26067.66667824  .00038119  00000+0  12930-2 0  9995,2 46054  53.1580 118.6652 0001506  78.5150  57.2489 15.30189726  5743
STARLINK-1554,46055,53.1595,0.000148,15.30193834,474.21918121467024,476.24777887676464,1 46055U 20055AE  26067.44403152  .00000801  00000+0  39180-4 0  9999,2 46055  53.1595 119.8236 0001480  90.3801 269.7369 15.30193834308880
STARLINK-1564,46058,53.1594,9.65e-05,15.30198786,474.5573453824045,475.88004303138587,1 46058U 20055AH  26067.37665788 -.00003035  00000+0 -90401-4 0  9996,2 46058  53.1594 120.4689 0000965  65.2855 294.8247 15.30198786308862
STARLINK-1570,46059,53.1605,0.0001643,15.30191774,474.11362110215396,476.36564066306255,1 46059U 20055AJ  26067.53671495 -.00000686  00000+0 -11022-4 0  9998,2 46059  53.1605 119.2658 0001643  99.0835 261.0351 15.30191774308856
STARLINK-1572,46060,53.1548,0.0001346,15.2936741,476.77936486679937,478.62495676889193,1 46060U 20055AK  26067.41944601  .00007460  00000+0  27048-3 0  9998,2 46060  53.1548 119.9782 0001346  81.4933 278.6220 15.29367410308841
STARLINK-1573,46061,53.1597,0.0001644,15.30200144,474.08794845178636,476.34133047084197,1 46061U 20055AL  26067.52090962  .00002674  00000+0  10239-3 0  9999,2 46061  53.1597 119.2921 0001644  87.6733 272.4456 15.30200144308891
STARLINK-1577,46063,53.1608,0.0001335,15.30195637,474.31317234144717,476.1430208222346,1 46063U 20055AN  26067.41660676  .00001308  00000+0  56304-4 0  9991,2 46063  53.1608 119.7468 0001335  74.6623 285.4525 15.30195637308877
STARLINK-1583,46064,53.1605,0.000152,15.29833979,475.26628437587533,477.3500357045277,1 46064U 20055AP  26067.64829172  .00056608  00000+0  19305-2 0  9996,2 46064  53.1605 118.7022 0001520  76.1543 283.9627 15.29833979308900
STARLINK-1525,46066,53.0538,0.0001537,15.13789967,523.5936044286218,525.7155225552406,1 46066U 20055AR  26067.66667824  .00036694  00000+0  20158-2 0  9995,2 46066  53.0538 101.0298 0001537  83.1174 132.7978 15.13789967  5748
STARLINK-1536,46070,53.0552,0.0001495,15.06395161,546.1910469894055,548.2617306426628,1 46070U 20055AV  26067.29047269  .00000868  00000+0  77195-4 0  9993,2 46070  53.0552 102.9006 0001495  86.8379 273.2781 15.06395161309107
STARLINK-1542,46073,53.0546,0.0001365,15.06395097,546.2812728385261,548.1718970972224,1 46073U 20055AY  26067.34944674  .00000647  00000+0  62323-4 0  9990,2 46073  53.0546 102.6344 0001365  86.3176 273.7969 15.06395097309102
STARLINK-1549,46074,53.0535,0.0001397,15.0641193,546.2075283621925,548.1424605334414,1 46074U 20055AZ  26067.46740276  .00004664  00000+0  33170-3 0  9996,2 46074  53.0535 102.1054 0001397  89.9428 270.1721 15.06411930309111
STARLINK-1551,46075,53.0549,0.0001253,15.0640625,546.3246588805187,548.0601464288247,1 46075U 20055BA  26067.49318842  .00001687  00000+0  13207-3 0  9991,2 46075  53.0549 101.9902 0001253  87.4132 272.7000 15.06406250309120
STARLINK-1552,46076,53.0544,0.0001301,15.06396704,546.3206705603561,548.1226488836155,1 46076U 20055BB  26067.38629593  .00002432  00000+0  18213-3 0  9999,2 46076  53.0544 102.4705 0001301  93.7149 266.3989 15.06396704309098
STARLINK-1559,46077,53.025,0.0004208,15.29381871,474.7740251017358,480.54386296823577,1 46077U 20055BC  26067.31874488  .00067845  00000+0  23396-2 0  9994,2 46077  53.0250  80.3236 0004208  31.2070 328.9178 15.29381871309375
STARLINK-1566,46079,53.0536,0.000207,15.06391534,545.8039526079083,548.6710576530322,1 46079U 20055BE  26067.47109393  .00006895  00000+0  48147-3 0  9999,2 46079  53.0536 102.0899 0002070  58.5550 301.5641 15.06391534309128
STARLINK-1568,46080,53.0625,0.0006287,15.4638766,423.02517661617367,431.58233782430307,1 46080U 20055BF  26067.33051724  .00061884  00000+0  12298-2 0  9996,2 46080  53.0625  39.4570 0006287 115.6969 244.4688 15.46387660309980
STARLINK-1578,46082,53.0555,0.0001408,15.06396926,546.2458889180725,548.1960697250506,1 46082U 20055BH  26067.48582698  .00001220  00000+0  10081-3 0  9990,2 46082  53.0555 102.0233 0001408  91.6401 268.4749 15.06396926309122
